{
"type": "FeatureCollection",
"crs": { "type": "name", "properties": { "name": "urn:ogc:def:crs:OGC:1.3:CRS84" } },
"features": [
{ "type": "Feature", "properties": { "id": "2fe53e3d-c256-43c1-becf-0da7cf484487", "crop_type": "maize" }, "geometry": { "type": "Point", "coordinates": [ 32.504810288531978, 0.37118862074973 ] } },
{ "type": "Feature", "properties": { "id": "f8de6f42-0df1-481a-886d-45da24263531", "crop_type": "banana" }, "geometry": { "type": "Point", "coordinates": [ 32.612447951072888, 0.391058323148547 ] } },
{ "type": "Feature", "properties": { "id": "88dc1b80-1cee-4caf-ac83-331ccc7ff3ec", "crop_type": "sugarcane" }, "geometry": { "type": "Point", "coordinates": [ 32.598337659028871, 0.320197986413854 ] } },
{ "type": "Feature", "properties": { "id": "cda1cce5-8d20-4fb4-8d56-537567dba4ee", "crop_type": "cassava" }, "geometry": { "type": "Point", "coordinates": [ 32.574542337684477, 0.363163369047805 ] } },
{ "type": "Feature", "properties": { "id": "30e36a0c-1bdb-4369-a01d-589510b8624c", "crop_type": "sugarcane" }, "geometry": { "type": "Point", "coordinates": [ 32.531017544415626, 0.267681038094477 ] } },
{ "type": "Feature", "properties": { "id": "7813569b-05e4-418d-bb42-e2fa671e0a09", "crop_type": "banana" }, "geometry": { "type": "Point", "coordinates": [ 32.593053935539267, 0.382089893489442 ] } },
{ "type": "Feature", "properties": { "id": "6b491606-2424-47ea-bf4d-a35c973318a3", "crop_type": "sugarcane" }, "geometry": { "type": "Point", "coordinates": [ 32.612310417544499, 0.26840585578881 ] } },
{ "type": "Feature", "properties": { "id": "d763a00f-d365-40de-911f-a004a5403f2f", "crop_type": "banana" }, "geometry": { "type": "Point", "coordinates": [ 32.636188237310719, 0.286600622584712 ] } },
{ "type": "Feature", "properties": { "id": "6b5e6118-eb8d-441d-81ee-08905fa2bfdf", "crop_type": "banana" }, "geometry": { "type": "Point", "coordinates": [ 32.528418541896208, 0.395837278649549 ] } },
{ "type": "Feature", "properties": { "id": "ef08c559-32ff-45b2-9718-01f1921052da", "crop_type": "maize" }, "geometry": { "type": "Point", "coordinates": [ 32.65477232770705, 0.307588130392148 ] } },
{ "type": "Feature", "properties": { "id": "4c051174-7501-4491-b455-7ec5d290b7a7", "crop_type": "cassava" }, "geometry": { "type": "Point", "coordinates": [ 32.656735137346686, 0.286771727263217 ] } },
{ "type": "Feature", "properties": { "id": "a5094371-23ab-4a2b-8c71-c8dcbbded096", "crop_type": "cassava" }, "geometry": { "type": "Point", "coordinates": [ 32.598000294713479, 0.302065052986104 ] } },
{ "type": "Feature", "properties": { "id": "83643622-7cf8-4c96-bb19-bbb92d155d9f", "crop_type": "sugarcane" }, "geometry": { "type": "Point", "coordinates": [ 32.464056858712141, 0.37005093320255 ] } },
{ "type": "Feature", "properties": { "id": "86d2f64d-682e-4dd4-aa92-5f344abca0eb", "crop_type": "cassava" }, "geometry": { "type": "Point", "coordinates": [ 32.511509157439058, 0.227827399737824 ] } },
{ "type": "Feature", "properties": { "id": "e0a2d4d4-d26c-46b0-a42f-1de47fcac59a", "crop_type": "banana" }, "geometry": { "type": "Point", "coordinates": [ 32.578936999754937, 0.318142039245253 ] } },
{ "type": "Feature", "properties": { "id": "d12dd5d7-55b8-4fef-a12e-fc6a54194357", "crop_type": "maize" }, "geometry": { "type": "Point", "coordinates": [ 32.589544322517646, 0.2035737278129 ] } },
{ "type": "Feature", "properties": { "id": "88b6ff7c-01cb-4790-b420-580b7c247369", "crop_type": "maize" }, "geometry": { "type": "Point", "coordinates": [ 32.679810883904501, 0.231693995540851 ] } },
{ "type": "Feature", "properties": { "id": "49ae78f3-bc38-44ee-afb3-56cb3c77c786", "crop_type": "maize" }, "geometry": { "type": "Point", "coordinates": [ 32.476386905776515, 0.395081204024381 ] } },
{ "type": "Feature", "properties": { "id": "62fffdd3-3feb-449d-856c-f9773e2820ae", "crop_type": "maize" }, "geometry": { "type": "Point", "coordinates": [ 32.680936355314685, 0.298861348324432 ] } },
{ "type": "Feature", "properties": { "id": "19047886-21b2-4d5b-b38e-55acfc8eec8b", "crop_type": "sugarcane" }, "geometry": { "type": "Point", "coordinates": [ 32.579594731112806, 0.272623638241319 ] } },
{ "type": "Feature", "properties": { "id": "756aca2f-d737-461e-9984-1405114f5c02", "crop_type": "maize" }, "geometry": { "type": "Point", "coordinates": [ 32.658763903809636, 0.272692114000595 ] } },
{ "type": "Feature", "properties": { "id": "ca20ffdf-e9e0-497d-b44d-b81cad29b492", "crop_type": "maize" }, "geometry": { "type": "Point", "coordinates": [ 32.642333511811657, 0.33956490208258 ] } },
{ "type": "Feature", "properties": { "id": "1cb892c4-9803-4109-9424-e995eb6688fa", "crop_type": "maize" }, "geometry": { "type": "Point", "coordinates": [ 32.650599926812738, 0.215512076223907 ] } },
{ "type": "Feature", "properties": { "id": "bdbe78d0-b38d-45a9-b714-5888e1091651", "crop_type": "maize" }, "geometry": { "type": "Point", "coordinates": [ 32.570122237497429, 0.300583848405424 ] } },
{ "type": "Feature", "properties": { "id": "80c2cb5e-90a1-4d42-ba2f-c5f32ab525ec", "crop_type": "banana" }, "geometry": { "type": "Point", "coordinates": [ 32.576803374036949, 0.33715225035068 ] } },
{ "type": "Feature", "properties": { "id": "b52e1b18-c2a3-408f-8131-4d82fb355c7a", "crop_type": "sugarcane" }, "geometry": { "type": "Point", "coordinates": [ 32.519029597530356, 0.245789658555431 ] } },
{ "type": "Feature", "properties": { "id": "3b38ad6b-8709-4ff2-9e3a-2f3cd48fc285", "crop_type": "banana" }, "geometry": { "type": "Point", "coordinates": [ 32.553939296306211, 0.309593728282596 ] } },
{ "type": "Feature", "properties": { "id": "2271a8a6-fcd9-4c70-af48-3f5cf45cca4f", "crop_type": "sugarcane" }, "geometry": { "type": "Point", "coordinates": [ 32.48603642138243, 0.363710607186861 ] } },
{ "type": "Feature", "properties": { "id": "4a02f96e-9bbd-42e2-b38f-f8eab466a6d5", "crop_type": "maize" }, "geometry": { "type": "Point", "coordinates": [ 32.660214439424323, 0.371973115227886 ] } },
{ "type": "Feature", "properties": { "id": "55b808d7-5b11-4dff-84a3-c95e3c4635b3", "crop_type": "banana" }, "geometry": { "type": "Point", "coordinates": [ 32.528284856674901, 0.395742424763318 ] } },
{ "type": "Feature", "properties": { "id": "50b90c43-6048-4f48-8e4d-c5ca156b6293", "crop_type": "banana" }, "geometry": { "type": "Point", "coordinates": [ 32.628256991885671, 0.361651505507035 ] } },
{ "type": "Feature", "properties": { "id": "ebb4db36-958a-4499-b566-1eb3b1789143", "crop_type": "banana" }, "geometry": { "type": "Point", "coordinates": [ 32.590544882379142, 0.373905744148089 ] } },
{ "type": "Feature", "properties": { "id": "40eb67c0-8514-40e0-9993-a6354a6444af", "crop_type": "sugarcane" }, "geometry": { "type": "Point", "coordinates": [ 32.604803395895757, 0.256721225488523 ] } },
{ "type": "Feature", "properties": { "id": "a1cd0639-61ab-4e60-b932-a5510f90f716", "crop_type": "maize" }, "geometry": { "type": "Point", "coordinates": [ 32.531481068598652, 0.367486326748784 ] } },
{ "type": "Feature", "properties": { "id": "614a1e5b-38bb-43a4-a03e-3ef1229037de", "crop_type": "banana" }, "geometry": { "type": "Point", "coordinates": [ 32.661921211618768, 0.205107704342049 ] } },
{ "type": "Feature", "properties": { "id": "d9381a75-1c82-4fdf-801f-942d379fdf2d", "crop_type": "cassava" }, "geometry": { "type": "Point", "coordinates": [ 32.650903498868793, 0.347866728558296 ] } },
{ "type": "Feature", "properties": { "id": "24c675fe-13fa-42ac-8316-9eb9c2c31e9e", "crop_type": "sugarcane" }, "geometry": { "type": "Point", "coordinates": [ 32.525332986586562, 0.347833695759856 ] } },
{ "type": "Feature", "properties": { "id": "fb30b4b2-c025-442c-a9ec-0683f4080a15", "crop_type": "sugarcane" }, "geometry": { "type": "Point", "coordinates": [ 32.56276215467998, 0.278361840172924 ] } },
{ "type": "Feature", "properties": { "id": "798b5e7a-a60d-4ab6-b610-69d9ff7f0f12", "crop_type": "maize" }, "geometry": { "type": "Point", "coordinates": [ 32.677638752622201, 0.230004493940776 ] } },
{ "type": "Feature", "properties": { "id": "9454e095-10a4-4550-b472-f547760d1ef6", "crop_type": "maize" }, "geometry": { "type": "Point", "coordinates": [ 32.680493260514602, 0.293686357085239 ] } },
{ "type": "Feature", "properties": { "id": "cd89f475-4f65-4d0b-b083-9032f4caa52d", "crop_type": "sugarcane" }, "geometry": { "type": "Point", "coordinates": [ 32.583776448414149, 0.316229664969806 ] } },
{ "type": "Feature", "properties": { "id": "5fc1c067-7464-424e-8159-05ad9ee5dd18", "crop_type": "banana" }, "geometry": { "type": "Point", "coordinates": [ 32.573296899816853, 0.396984387190628 ] } },
{ "type": "Feature", "properties": { "id": "8ad8be0b-bb6e-4be4-9a2c-6ad6cd745b9d", "crop_type": "banana" }, "geometry": { "type": "Point", "coordinates": [ 32.496724175418336, 0.311099695883936 ] } },
{ "type": "Feature", "properties": { "id": "53f162be-63dd-4504-8517-0bc7c44e0a90", "crop_type": "sugarcane" }, "geometry": { "type": "Point", "coordinates": [ 32.632206473227939, 0.374477652571742 ] } },
{ "type": "Feature", "properties": { "id": "92bd3e06-4e2f-40a0-8a87-a770ca2f5480", "crop_type": "sugarcane" }, "geometry": { "type": "Point", "coordinates": [ 32.571071165579561, 0.319625495447935 ] } },
{ "type": "Feature", "properties": { "id": "d4561476-117a-4182-9fde-0cf379025438", "crop_type": "sugarcane" }, "geometry": { "type": "Point", "coordinates": [ 32.607946009084017, 0.377830896478502 ] } },
{ "type": "Feature", "properties": { "id": "62d32463-c957-4866-81f4-f62b494d884f", "crop_type": "cassava" }, "geometry": { "type": "Point", "coordinates": [ 32.490772120852085, 0.23989152623333 ] } },
{ "type": "Feature", "properties": { "id": "4cfa09fb-cb3e-4884-a3c3-f81afc7bbee4", "crop_type": "sugarcane" }, "geometry": { "type": "Point", "coordinates": [ 32.521445338090523, 0.402419030563964 ] } },
{ "type": "Feature", "properties": { "id": "4a2463cd-b9a6-4af4-8d47-1a42e0d8714e", "crop_type": "banana" }, "geometry": { "type": "Point", "coordinates": [ 32.651780398350468, 0.288306784871071 ] } },
{ "type": "Feature", "properties": { "id": "45d0b242-5c6f-420d-92fa-3fc2b8b57a6d", "crop_type": "cassava" }, "geometry": { "type": "Point", "coordinates": [ 32.605010142413086, 0.340839355187843 ] } },
{ "type": "Feature", "properties": { "id": "691832cd-bd90-42f8-847d-0ac1544337d5", "crop_type": "sugarcane" }, "geometry": { "type": "Point", "coordinates": [ 32.521647027308092, 0.362658381389916 ] } },
{ "type": "Feature", "properties": { "id": "fa363a13-7f0d-40d5-82fc-018c39afed17", "crop_type": "cassava" }, "geometry": { "type": "Point", "coordinates": [ 32.600545398626906, 0.397236256496683 ] } },
{ "type": "Feature", "properties": { "id": "69a66741-e2e0-45d0-a3c4-e70eb7fb7151", "crop_type": "banana" }, "geometry": { "type": "Point", "coordinates": [ 32.50655226318959, 0.401494021113433 ] } },
{ "type": "Feature", "properties": { "id": "606d3872-97b2-4375-b1a4-4800252d1762", "crop_type": "banana" }, "geometry": { "type": "Point", "coordinates": [ 32.629885563528944, 0.265410095527116 ] } },
{ "type": "Feature", "properties": { "id": "b2114762-9555-48ed-a128-13bbc1841bcb", "crop_type": "cassava" }, "geometry": { "type": "Point", "coordinates": [ 32.538015968187288, 0.385229598322063 ] } },
{ "type": "Feature", "properties": { "id": "6683be79-8829-4b4f-929e-06768c459db9", "crop_type": "banana" }, "geometry": { "type": "Point", "coordinates": [ 32.586990070949952, 0.329652515878 ] } },
{ "type": "Feature", "properties": { "id": "3fd6b703-ae95-4b31-886c-bafbc305c23a", "crop_type": "banana" }, "geometry": { "type": "Point", "coordinates": [ 32.628353525584778, 0.385329739065196 ] } },
{ "type": "Feature", "properties": { "id": "66c4697b-1a3c-44fe-80f1-ba9652799c18", "crop_type": "maize" }, "geometry": { "type": "Point", "coordinates": [ 32.614292689626055, 0.334771681206436 ] } },
{ "type": "Feature", "properties": { "id": "368e39eb-e534-436a-9c60-a334f6ab7abf", "crop_type": "banana" }, "geometry": { "type": "Point", "coordinates": [ 32.610639865179309, 0.29684459610262 ] } },
{ "type": "Feature", "properties": { "id": "3090efc8-84cb-401e-9656-4b85fb2cda2e", "crop_type": "cassava" }, "geometry": { "type": "Point", "coordinates": [ 32.655007264092148, 0.369916822805145 ] } },
{ "type": "Feature", "properties": { "id": "034f49e9-8913-4ae3-bf7b-a7596fbc7893", "crop_type": "banana" }, "geometry": { "type": "Point", "coordinates": [ 32.678403428732089, 0.283500625131806 ] } },
{ "type": "Feature", "properties": { "id": "afb3ce2e-8e51-413c-8e89-2f88f8ecb898", "crop_type": "maize" }, "geometry": { "type": "Point", "coordinates": [ 32.529261581021757, 0.397349034766241 ] } },
{ "type": "Feature", "properties": { "id": "eba9674e-539f-49d6-a904-7a9fcb2a3b1a", "crop_type": "banana" }, "geometry": { "type": "Point", "coordinates": [ 32.509421278105989, 0.384438387551763 ] } },
{ "type": "Feature", "properties": { "id": "a332662c-106c-4c5d-b00b-d236d27ea879", "crop_type": "maize" }, "geometry": { "type": "Point", "coordinates": [ 32.644318186183199, 0.224043042295365 ] } },
{ "type": "Feature", "properties": { "id": "b1a715f6-6d4e-4793-9d1f-ed1220cb1981", "crop_type": "sugarcane" }, "geometry": { "type": "Point", "coordinates": [ 32.46185949631829, 0.377544953669389 ] } },
{ "type": "Feature", "properties": { "id": "c957b49d-bb48-47fe-b9bb-4c3e2c7dee2e", "crop_type": "sugarcane" }, "geometry": { "type": "Point", "coordinates": [ 32.540290028067503, 0.377982630260579 ] } },
{ "type": "Feature", "properties": { "id": "d98aea7d-fcf1-452d-b2b2-76cf6c87a533", "crop_type": "banana" }, "geometry": { "type": "Point", "coordinates": [ 32.653014846950192, 0.397616778410768 ] } },
{ "type": "Feature", "properties": { "id": "8e89aa8f-544b-4fd0-87fb-c5a8687d2a27", "crop_type": "banana" }, "geometry": { "type": "Point", "coordinates": [ 32.528373725316413, 0.400489893361242 ] } },
{ "type": "Feature", "properties": { "id": "a5a33e80-c164-4c38-98d4-71be478d6513", "crop_type": "banana" }, "geometry": { "type": "Point", "coordinates": [ 32.545761789211667, 0.399791982958693 ] } },
{ "type": "Feature", "properties": { "id": "d2a4ba70-5d84-4610-a011-07c5dcdc92dd", "crop_type": "banana" }, "geometry": { "type": "Point", "coordinates": [ 32.639589883370327, 0.341739958036856 ] } },
{ "type": "Feature", "properties": { "id": "586e1f31-c40d-4c0c-a413-d612adc125d3", "crop_type": "banana" }, "geometry": { "type": "Point", "coordinates": [ 32.649241693977238, 0.365882572331616 ] } },
{ "type": "Feature", "properties": { "id": "a682f1b8-d781-4a50-9b0d-f2b5dea2d257", "crop_type": "cassava" }, "geometry": { "type": "Point", "coordinates": [ 32.636115536026587, 0.286334418047572 ] } },
{ "type": "Feature", "properties": { "id": "7318029f-e56d-4f15-b777-b0215033257d", "crop_type": "banana" }, "geometry": { "type": "Point", "coordinates": [ 32.568676468562096, 0.394919816555266 ] } },
{ "type": "Feature", "properties": { "id": "cb814f85-f560-4531-bc15-3223d6c7b9fd", "crop_type": "banana" }, "geometry": { "type": "Point", "coordinates": [ 32.606926233990833, 0.218866912091276 ] } },
{ "type": "Feature", "properties": { "id": "90659fb2-ec88-44ce-ab6e-34572c5be138", "crop_type": "maize" }, "geometry": { "type": "Point", "coordinates": [ 32.487729491881616, 0.350081230117586 ] } },
{ "type": "Feature", "properties": { "id": "78ac85a7-7245-4bbd-9e4d-beab6bf925ea", "crop_type": "sugarcane" }, "geometry": { "type": "Point", "coordinates": [ 32.596426969279086, 0.343817709059878 ] } },
{ "type": "Feature", "properties": { "id": "1893b9b6-0177-40d7-9c33-c33f20364fd0", "crop_type": "banana" }, "geometry": { "type": "Point", "coordinates": [ 32.563973801075015, 0.250232954848162 ] } },
{ "type": "Feature", "properties": { "id": "1335d553-a56c-4dce-845d-d183609db2d0", "crop_type": "sugarcane" }, "geometry": { "type": "Point", "coordinates": [ 32.526376333477117, 0.240130488517286 ] } },
{ "type": "Feature", "properties": { "id": "98363224-aa97-4de5-b52a-4439c9ac893d", "crop_type": "banana" }, "geometry": { "type": "Point", "coordinates": [ 32.463678564891836, 0.226649421645971 ] } },
{ "type": "Feature", "properties": { "id": "fde85596-99b4-46e7-9ae7-a06c78caadcd", "crop_type": "banana" }, "geometry": { "type": "Point", "coordinates": [ 32.597259210064166, 0.312326168297209 ] } },
{ "type": "Feature", "properties": { "id": "ee09ecc5-13bf-4085-98d1-3a8923530406", "crop_type": "maize" }, "geometry": { "type": "Point", "coordinates": [ 32.585809086841095, 0.250538525960399 ] } },
{ "type": "Feature", "properties": { "id": "9c17f8f4-146f-45d8-b967-4ae20dcc97c6", "crop_type": "maize" }, "geometry": { "type": "Point", "coordinates": [ 32.528432901539873, 0.233745499369219 ] } },
{ "type": "Feature", "properties": { "id": "f2df28d1-8e3f-4b30-b860-a063c10566e8", "crop_type": "banana" }, "geometry": { "type": "Point", "coordinates": [ 32.519553745562781, 0.399714072050966 ] } },
{ "type": "Feature", "properties": { "id": "9856c3eb-08e1-4a8c-976b-58f8da3b3d91", "crop_type": "sugarcane" }, "geometry": { "type": "Point", "coordinates": [ 32.513033549753295, 0.355014250602832 ] } },
{ "type": "Feature", "properties": { "id": "8f014988-0067-4f22-800f-13bc56fccd2f", "crop_type": "cassava" }, "geometry": { "type": "Point", "coordinates": [ 32.625576156986916, 0.390194474901504 ] } },
{ "type": "Feature", "properties": { "id": "524d3f06-3daa-41ea-a104-fe83d4d43bbe", "crop_type": "banana" }, "geometry": { "type": "Point", "coordinates": [ 32.554463568363367, 0.208071411381596 ] } },
{ "type": "Feature", "properties": { "id": "a1020b05-efc6-4589-8d7d-059449c97665", "crop_type": "banana" }, "geometry": { "type": "Point", "coordinates": [ 32.591393940233367, 0.324281814112846 ] } },
{ "type": "Feature", "properties": { "id": "80953f9c-d188-4d80-b5da-8617644b1ff0", "crop_type": "cassava" }, "geometry": { "type": "Point", "coordinates": [ 32.516313564182035, 0.342554008465397 ] } },
{ "type": "Feature", "properties": { "id": "6a8dd9a3-c40c-440b-a9c5-3a63d68b161d", "crop_type": "banana" }, "geometry": { "type": "Point", "coordinates": [ 32.516285030614483, 0.23220049609288 ] } },
{ "type": "Feature", "properties": { "id": "e080758f-35b8-4772-8226-0103d6df23da", "crop_type": "maize" }, "geometry": { "type": "Point", "coordinates": [ 32.547140420404261, 0.209315830692192 ] } },
{ "type": "Feature", "properties": { "id": "5e39eb54-bad1-4b44-b244-d5aa0257b370", "crop_type": "banana" }, "geometry": { "type": "Point", "coordinates": [ 32.581296137184729, 0.202616721957104 ] } },
{ "type": "Feature", "properties": { "id": "a7ae1e22-14c8-4874-bb4d-f1424538513b", "crop_type": "cassava" }, "geometry": { "type": "Point", "coordinates": [ 32.655735316256838, 0.278087857567366 ] } },
{ "type": "Feature", "properties": { "id": "8b5692a7-a29e-4ab8-9af3-bc48f2e70069", "crop_type": "cassava" }, "geometry": { "type": "Point", "coordinates": [ 32.591836070054946, 0.318263642796399 ] } },
{ "type": "Feature", "properties": { "id": "566f02a1-35bf-475f-9fa5-e69d421c0048", "crop_type": "maize" }, "geometry": { "type": "Point", "coordinates": [ 32.482227862283686, 0.357008880492119 ] } },
{ "type": "Feature", "properties": { "id": "bbccb1e0-f787-4b69-a34d-e45b41783ebd", "crop_type": "maize" }, "geometry": { "type": "Point", "coordinates": [ 32.592702217601797, 0.283853938009708 ] } },
{ "type": "Feature", "properties": { "id": "67e330bc-1ff4-45e2-aaa2-d24f53f8b41d", "crop_type": "maize" }, "geometry": { "type": "Point", "coordinates": [ 32.516467004441544, 0.329077024163801 ] } },
{ "type": "Feature", "properties": { "id": "8919d5f1-98ff-400b-9699-23ce26cdc7e9", "crop_type": "sugarcane" }, "geometry": { "type": "Point", "coordinates": [ 32.674132090195677, 0.247642290182791 ] } },
{ "type": "Feature", "properties": { "id": "dd2e4895-b8d4-4b5c-882d-720c5561fa21", "crop_type": "cassava" }, "geometry": { "type": "Point", "coordinates": [ 32.663818392224542, 0.344679418856967 ] } },
{ "type": "Feature", "properties": { "id": "241551a3-673e-4a00-ba16-7db0d6a00134", "crop_type": "banana" }, "geometry": { "type": "Point", "coordinates": [ 32.661438873212511, 0.346045934709084 ] } },
{ "type": "Feature", "properties": { "id": "13052ef8-d38f-4fc5-8b0c-00eebaed7dfb", "crop_type": "cassava" }, "geometry": { "type": "Point", "coordinates": [ 32.535354471634626, 0.311346525368913 ] } }
]
}
